SHIJIAN-17 (SJ-17)      
1 41838U 16065A   26193.41974852  .00000085  00000+0  00000+0 0  9994
2 41838   5.8143  72.2984 0001837  46.6973 160.7777  0.99864412 35458
GOES 16                 
1 41866U 16071A   26194.25511491 -.00000094  00000+0  00000+0 0  9992
2 41866   0.3988  85.4934 0000525  98.9526  93.8384  1.00270880 35367
TIANLIAN 1-04           
1 41869U 16072A   26194.30734249  .00000027  00000+0  00000+0 0  9995
2 41869   0.9334  82.7446 0043985  90.3596  45.5113  1.00270899 35565
WGS F8 (USA 272)        
1 41879U 16075A   26194.20253001 -.00000204  00000+0  00000+0 0  9998
2 41879   0.0165  38.7362 0000266   4.9814 110.1051  1.00273272 35081
FENGYUN 4A              
1 41882U 16077A   26194.30035512 -.00000362  00000+0  00000+0 0  9995
2 41882   2.3854  79.9853 0008490 159.3794 283.7078  1.00269144 35197
ECHOSTAR 19             
1 41893U 16079A   26194.18530786 -.00000141  00000+0  00000+0 0  9993
2 41893   0.0153  51.5001 0001211  69.6947 139.4764  1.00271781 34967
JCSAT-110A (JCSAT-15)   
1 41903U 16082A   26194.08030728 -.00000353  00000+0  00000+0 0  9994
2 41903   0.0036 103.6062 0000384  39.2067 287.1277  1.00270764 35018
STAR ONE D1             
1 41904U 16082B   26194.32752903 -.00000214  00000+0  00000+0 0  9994
2 41904   0.0041 355.8707 0002251 117.0611 212.1901  1.00272912 35038
TJS-2                   
1 41911U 17001A   26194.18913679 -.00000009  00000+0  00000+0 0  9999
2 41911   0.8979  84.9782 0000813 112.1355 228.5849  1.00270127 34970
SBIRS GEO-4 (USA 273)   
1 41937U 17004A   26194.28007502  .00000123  00000+0  00000+0 0  9996
2 41937   2.2920  43.9351 0002534  67.1331 302.5033  1.00282335 34862
HISPASAT 36W-1          
1 41942U 17006A   26193.41328412 -.00000243  00000+0  00000+0 0  9998
2 41942   0.0105 294.5422 0000978 175.6146 292.9324  1.00269817 34495
TELKOM 3S               
1 41944U 17007A   26194.29922845 -.00000365  00000+0  00000+0 0  9993
2 41944   0.0153  77.1074 0001967  33.3448  46.4484  1.00271241 34406
INTELSAT 32E (IS-32E)   
1 41945U 17007B   26194.12470718  .00000000  00000+0  00000+0 0  9998
2 41945   0.0250  44.8942 0000425 284.8742 322.9651  1.00269412 34481
ECHOSTAR 23             
1 42070U 17014A   26193.61250087 -.00000057  00000+0  00000+0 0  9997
2 42070   0.0041  94.9189 0002114  14.3675 291.8138  1.00271367 34178
WGS F9 (USA 275)        
1 42075U 17016A   26194.03377860  .00000000  00000+0  00000+0 0  9997
2 42075   0.0255  26.6103 0000472 206.2452  58.2478  1.00271838 34151
SES-10                  
1 42432U 17017A   26194.12531598 -.00000275  00000+0  00000+0 0  9990
2 42432   0.0151  39.4861 0002706  73.3508 156.3915  1.00277790 34017
CHINASAT 16 (SJ-13)     
1 42662U 17018A   26193.29965231 -.00000350  00000+0  00000+0 0  9992
2 42662   0.0894  88.8799 0004971 134.5834 285.1393  1.00269643 34000
KOREASAT 7              
1 42691U 17023A   26194.29879512 -.00000365  00000+0  00000+0 0  9993
2 42691   0.0243  47.7759 0000935  95.6390  11.2249  1.00272153 33636
SGDC                    
1 42692U 17023B   26193.40157682 -.00000248  00000+0  00000+0 0  9993
2 42692   0.0149  54.6033 0002189  64.9187 240.4912  1.00271287 33652
GSAT-9                  
1 42695U 17024A   26194.29515509 -.00000288  00000+0  00000+0 0  9995
2 42695   0.0817  91.4307 0002307  30.8591  12.4201  1.00268357 33565
INMARSAT 5-F4           
1 42698U 17025A   26193.89697461  .00000074  00000+0  00000+0 0  9994
2 42698   0.0033 107.1279 0000492 104.2620  98.8155  1.00271282 33537
SES-15                  
1 42709U 17026A   26193.60868751  .00000061  00000+0  00000+0 0  9995
2 42709   0.0257 329.9259 0000229 136.7880 273.7411  1.00267333  7684
QZS-2 (MICHIBIKI-2)     
1 42738U 17028A   26193.46322432 -.00000098  00000+0  00000+0 0  9995
2 42738  39.3903 242.7811 0757741 269.5677  87.1524  1.00277448  7884
VIASAT-2                
1 42740U 17029A   26194.32197670 -.00000268  00000+0  00000+0 0  9998
2 42740   0.0195 307.1584 0000173 258.8785 131.1947  1.00272211 33464
EUTELSAT 172B           
1 42741U 17029B   26194.16734738 -.00000008  00000+0  00000+0 0  9995
2 42741   0.0267 133.3413 0000187 155.5899 234.3656  1.00271032 34003
GSAT-19                 
1 42747U 17031A   26194.07149075  .00000123  00000+0  00000+0 0  9995
2 42747   0.0334  86.9935 0006213   0.7502 276.8369  1.00271302 33409
ECHOSTAR 21             
1 42749U 17032A   26194.27790834  .00000065  00000+0  00000+0 0  9990
2 42749   1.7703 357.3836 0001947 110.2409 293.8461  1.00272832 33362
BULGARIASAT-1           
1 42801U 17038A   26194.27626167  .00000000  00000+0  00000+0 0  9991
2 42801   0.0319  65.5778 0003138  61.1304 265.7776  1.00271331 33103
HELLAS-SAT 3            
1 42814U 17040A   26194.21224615  .00000150  00000+0  00000+0 0  9990
2 42814   0.0459  44.5407 0003186  30.5343 331.4141  1.00270186 33063
GSAT-17                 
1 42815U 17040B   26194.29437509 -.00000260  00000+0  00000+0 0  9990
2 42815   0.0673  88.3815 0002248 168.8005 233.4593  1.00271070 33053
INTELSAT 35E (IS-35E)   
1 42818U 17041A   26193.91256185 -.00000239  00000+0  00000+0 0  9997
2 42818   0.0167  45.3733 0001581  65.1012 114.3450  1.00269769 33075
COSMOS 2520             
1 42907U 17046A   26194.28475505  .00000134  00000+0  00000+0 0  9994
2 42907   0.0352 107.4277 0000986 350.9160 340.3032  1.00268765 32655
