OBJECT_NAME,OBJECT_ID,EPOCH,MEAN_MOTION,ECCENTRICITY,INCLINATION,RA_OF_ASC_NODE,ARG_OF_PERICENTER,MEAN_ANOMALY,EPHEMERIS_TYPE,CLASSIFICATION_TYPE,NORAD_CAT_ID,ELEMENT_SET_NO,REV_AT_EPOCH,BSTAR,MEAN_MOTION_DOT,MEAN_MOTION_DDOT
SHIJIAN-17 (SJ-17),2016-065A,2026-07-12T10:04:26.272128,0.99864412,.0001837,5.8143,72.2984,46.6973,160.7777,0,U,41838,999,3545,0,.85E-6,0
GOES 16,2016-071A,2026-07-13T06:07:21.928224,1.00270880,.00005255,0.3988,85.4934,98.9526,93.8384,0,U,41866,999,3536,0,-.94E-6,0
TIANLIAN 1-04,2016-072A,2026-07-13T07:22:34.391136,1.00270899,.0043985,0.9334,82.7446,90.3596,45.5113,0,U,41869,999,3556,0,.27E-6,0
WGS F8 (USA 272),2016-075A,2026-07-13T04:51:38.592864,1.00273272,.00002661,0.0165,38.7362,4.9814,110.1051,0,U,41879,999,3508,0,-.204E-5,0
FENGYUN 4A,2016-077A,2026-07-13T07:12:30.682368,1.00269144,.00084909,2.3854,79.9853,159.3794,283.7078,0,U,41882,999,3519,0,-.362E-5,0
ECHOSTAR 19,2016-079A,2026-07-13T04:26:50.599104,1.00271781,.00012117,0.0153,51.5001,69.6947,139.4764,0,U,41893,999,3496,0,-.141E-5,0
JCSAT-110A (JCSAT-15),2016-082A,2026-07-13T01:55:38.548992,1.00270764,.00003848,0.0036,103.6062,39.2067,287.1277,0,U,41903,999,3501,0,-.353E-5,0
STAR ONE D1,2016-082B,2026-07-13T07:51:38.508192,1.00272912,.00022514,0.0041,355.8707,117.0611,212.1901,0,U,41904,999,3503,0,-.214E-5,0
TJS-2,2017-001A,2026-07-13T04:32:21.418656,1.00270127,.00008135,0.8979,84.9782,112.1355,228.5849,0,U,41911,999,3497,0,-.9E-7,0
SBIRS GEO-4 (USA 273),2017-004A,2026-07-13T06:43:18.481728,1.00282335,.00025345,2.2920,43.9351,67.1331,302.5033,0,U,41937,999,3486,0,.123E-5,0
HISPASAT 36W-1,2017-006A,2026-07-12T09:55:07.747968,1.00269817,.00009783,0.0105,294.5422,175.6146,292.9324,0,U,41942,999,3449,0,-.243E-5,0
TELKOM 3S,2017-007A,2026-07-13T07:10:53.338080,1.00271241,.00019676,0.0153,77.1074,33.3448,46.4484,0,U,41944,999,3440,0,-.365E-5,0
INTELSAT 32E (IS-32E),2017-007B,2026-07-13T02:59:34.700352,1.00269412,.00004255,0.0250,44.8942,284.8742,322.9651,0,U,41945,999,3448,0,0,0
ECHOSTAR 23,2017-014A,2026-07-12T14:42:00.075168,1.00271367,.00021143,0.0041,94.9189,14.3675,291.8138,0,U,42070,999,3417,0,-.57E-6,0
WGS F9 (USA 275),2017-016A,2026-07-13T00:48:38.471040,1.00271838,.00004724,0.0255,26.6103,206.2452,58.2478,0,U,42075,999,3415,0,0,0
SES-10,2017-017A,2026-07-13T03:00:27.300672,1.00277790,.00027067,0.0151,39.4861,73.3508,156.3915,0,U,42432,999,3401,0,-.275E-5,0
CHINASAT 16 (SJ-13),2017-018A,2026-07-12T07:11:29.959584,1.00269643,.0004971,0.0894,88.8799,134.5834,285.1393,0,U,42662,999,3400,0,-.35E-5,0
KOREASAT 7,2017-023A,2026-07-13T07:10:15.898368,1.00272153,.00009359,0.0243,47.7759,95.6390,11.2249,0,U,42691,999,3363,0,-.365E-5,0
SGDC,2017-023B,2026-07-12T09:38:16.237248,1.00271287,.00021894,0.0149,54.6033,64.9187,240.4912,0,U,42692,999,3365,0,-.248E-5,0
GSAT-9,2017-024A,2026-07-13T07:05:01.399776,1.00268357,.00023071,0.0817,91.4307,30.8591,12.4201,0,U,42695,999,3356,0,-.288E-5,0
INMARSAT 5-F4,2017-025A,2026-07-12T21:31:38.606304,1.00271282,.00004924,0.0033,107.1279,104.2620,98.8155,0,U,42698,999,3353,0,.74E-6,0
SES-15,2017-026A,2026-07-12T14:36:30.600864,1.00267333,.00002297,0.0257,329.9259,136.7880,273.7411,0,U,42709,999,768,0,.61E-6,0
QZS-2 (MICHIBIKI-2),2017-028A,2026-07-12T11:07:02.581248,1.00277448,.07577411,39.3903,242.7811,269.5677,87.1524,0,U,42738,999,788,0,-.98E-6,0
VIASAT-2,2017-029A,2026-07-13T07:43:38.786880,1.00272211,.00001733,0.0195,307.1584,258.8785,131.1947,0,U,42740,999,3346,0,-.268E-5,0
EUTELSAT 172B,2017-029B,2026-07-13T04:00:58.813632,1.00271032,.00001875,0.0267,133.3413,155.5899,234.3656,0,U,42741,999,3400,0,-.8E-7,0
GSAT-19,2017-031A,2026-07-13T01:42:56.800800,1.00271302,.00062132,0.0334,86.9935,0.7502,276.8369,0,U,42747,999,3340,0,.123E-5,0
ECHOSTAR 21,2017-032A,2026-07-13T06:40:11.280576,1.00272832,.00019471,1.7703,357.3836,110.2409,293.8461,0,U,42749,999,3336,0,.65E-6,0
BULGARIASAT-1,2017-038A,2026-07-13T06:37:49.008288,1.00271331,.00031387,0.0319,65.5778,61.1304,265.7776,0,U,42801,999,3310,0,0,0
HELLAS-SAT 3,2017-040A,2026-07-13T05:05:38.067360,1.00270186,.00031863,0.0459,44.5407,30.5343,331.4141,0,U,42814,999,3306,0,.15E-5,0
GSAT-17,2017-040B,2026-07-13T07:03:54.007776,1.00271070,.00022483,0.0673,88.3815,168.8005,233.4593,0,U,42815,999,3305,0,-.26E-5,0
INTELSAT 35E (IS-35E),2017-041A,2026-07-12T21:54:05.343840,1.00269769,.00015813,0.0167,45.3733,65.1012,114.3450,0,U,42818,999,3307,0,-.239E-5,0
COSMOS 2520,2017-046A,2026-07-13T06:50:02.836320,1.00268765,.00009868,0.0352,107.4277,350.9160,340.3032,0,U,42907,999,3265,0,.134E-5,0
